LEMUR-2-LEIA-PHILIP     
1 63246U 25052AN  26197.67359950  .00000036  00000+0  80762-5 0  9990
2 63246  97.6801  89.1244 0005092 116.3264 243.8482 14.97392156 73087
LEMUR-2-LIA-MARTIN      
1 63248U 25052AQ  26197.66752175  .00001687  00000+0  14764-3 0  9997
2 63248  97.6862  89.6398 0005223  86.8570 273.3250 14.98035935 73090
LEMUR-2-DELOITTE-1      
1 63259U 25052BB  26197.84864045  .00002397  00000+0  20904-3 0  9991
2 63259  97.6884  90.1479 0002520  62.5836 297.5642 14.97790390 73136
LEMUR-2-EMERSONROSE     
1 63261U 25052BD  26197.66094012  .00002535  00000+0  21243-3 0  9994
2 63261  97.6883  90.5797 0002631  58.2436 301.9043 14.99298793 73155
LEMUR-2-MARACHE-FRAN    
1 63262U 25052BE  26197.68265075  .00001753  00000+0  14456-3 0  9995
2 63262  97.6829  90.9697 0005361 246.8465 113.2194 15.00321089 73181
LEMUR-2-THEFALCONER     
1 63264U 25052BG  26197.67888959  .00001048  00000+0  94694-4 0  9998
2 63264  97.6825  89.5700 0000352 260.7632  99.3550 14.97566592 73101
LEMUR-2-UNTITLED-SC     
1 63351U 25061A   26197.83860867  .00001725  00000+0  99290-4 0  9990
2 63351  97.5657 172.9906 0019360 157.6117 202.5963 15.13651904 72078
LEMUR-2-ESPERANZA       
1 63352U 25061B   26197.81382826  .00001783  00000+0  10219-3 0  9990
2 63352  97.5665 173.0666 0018969 156.9081 203.3007 15.13758544 72075
LEMUR-2-KREMPEL-BRO2    
1 63353U 25061C   26197.83234434  .00001822  00000+0  10306-3 0  9995
2 63353  97.5708 173.6560 0020159 149.8101 210.4297 15.14184756 72092
LEMUR-2-THERMORAPTOR    
1 63354U 25061D   26197.81281330  .00002167  00000+0  12160-3 0  9994
2 63354  97.5714 173.7181 0019895 148.7875 211.4543 15.14268285 72096
LEMUR-2-NEUROSPICY      
1 63355U 25061E   26197.84827368  .00001600  00000+0  90535-4 0  9999
2 63355  97.5642 173.3566 0017662 151.4567 208.7635 15.14386903 72100
LEMUR-2-TILLINFINITY    
1 63356U 25061F   26197.80605987  .00002193  00000+0  12068-3 0  9999
2 63356  97.5627 173.6259 0019212 140.6361 219.6271 15.14971595 72127
LEMUR-2-KREMPEL-BRO1    
1 63357U 25061G   26197.84937220  .00001644  00000+0  91841-4 0  9999
2 63357  97.5628 173.5767 0019837 141.8485 218.4155 15.14778201 72122
LEMUR-2-LANGER2SPACE    
1 63358U 25061H   26197.81576323  .00002170  00000+0  12121-3 0  9998
2 63358  97.5633 173.3455 0017567 149.9074 210.3171 15.14471707 72100
LEMUR-2-BALTO           
1 63395U 25052BH  26197.66696286  .00002531  00000+0  20630-3 0  9998
2 63395  97.6925  90.9447 0005068 321.2397  38.8462 15.00372103 73187
LEMUR-2-KRISH           
1 64561U 25135AK  26197.76517569  .00001787  00000+0  16263-3 0  9992
2 64561  97.7773 312.4454 0001205  98.2594 261.8764 14.96454472 58342
